{
  "norad_id": 68463,
  "name": "TRANSPORTER-16 OBJECT AZ",
  "history": [
    {
      "epoch": "2026-04-14T03:25:25.326336Z",
      "apogee_km": 515.3793873715813,
      "perigee_km": 512.6680113524517,
      "latitude_deg": -9.91818937841465e-06,
      "longitude_deg": 169.87595501150457,
      "height_km": 516.0995041556524,
      "semi_major_axis_km": 6892.160699362016,
      "eccentricity": 0.0001967,
      "inclination_deg": 97.4485,
      "raan_deg": 63.5548,
      "arg_perigee_deg": 318.238,
      "mean_anomaly_deg": 41.8703,
      "mean_motion_rev_day": 15.17293752
    }
  ]
}