TRANSPORTER-16 OBJECT AZ
1 68463U 26067AZ  26104.14265424  .00003869  00000+0  19754-3 0  9993
2 68463  97.4485  63.5548 0001967 318.2380  41.8703 15.17293752  2226
